STARLINK-11678 [DTC]    
1 64326U 25124K   25229.21179451  .00156335  00000+0  11952-2 0  9997
2 64326  42.9975 181.8947 0002650 257.0481 103.0091 15.70915212 10678
STARLINK-11674 [DTC]    
1 64327U 25124L   25229.56143926  .00169313  00000+0  12906-2 0  9994
2 64327  42.9982 179.3377 0001754 276.3489  83.7179 15.70944540 10736
STARLINK-11707 [DTC]    
1 64328U 25124M   25229.57737791  .00184325  00000+0  14060-2 0  9998
2 64328  42.9970 179.4667 0000985  50.2565 309.8389 15.70879865 10738
STARLINK-11734 [DTC]    
1 64329U 25124N   25229.23290256  .00159782  00000+0  12207-2 0  9992
2 64329  42.9977 181.1712 0002854 260.3245  99.7300 15.70919955 10680
STARLINK-34252          
1 64330U 25124P   25229.33335648  .00078340  00000+0  28253-2 0  9998
2 64330  42.9991 195.9863 0001216 288.1338 112.6081 15.27591262  5910
STARLINK-34050          
1 64331U 25124Q   25229.31969483  .00018003  00000+0  64529-3 0  9994
2 64331  42.9996 195.9763 0001412 267.7537  92.3153 15.28426433 11589
STARLINK-33782          
1 64332U 25124R   25229.58335648 -.00022251  00000+0 -80102-3 0  9991
2 64332  43.0010 194.2771 0002076 269.6803 187.8298 15.27596521  5896
STARLINK-34207          
1 64333U 25124S   25229.25671194  .00017615  00000+0  64795-3 0  9991
2 64333  42.9989 196.3634 0001044 268.8542  91.2190 15.27588814 10516
STARLINK-34260          
1 64334U 25124T   25229.59135092  .00021553  00000+0  78995-3 0  9994
2 64334  42.9959 194.5699 0001938 274.6741  85.3889 15.27599478 10565
STARLINK-33855          
1 64335U 25124U   25229.23486317  .00018141  00000+0  66685-3 0  9997
2 64335  43.0020 196.1899 0001635 253.0105 107.0568 15.27593744 10517
STARLINK-34223          
1 64336U 25124V   25229.30477427  .00054409  00000+0  12978-2 0  9990
2 64336  43.0011 194.9930 0002412 265.8362  94.2219 15.40760759 10539
STARLINK-34216          
1 64337U 25124W   25229.58335648 -.00025318  00000+0 -91330-3 0  9998
2 64337  42.9994 194.0401 0001128 262.4944 294.0685 15.27593270  5868
STARLINK-34218          
1 64338U 25124X   25229.32941809  .00031951  00000+0  76810-3 0  9997
2 64338  42.9997 195.1845 0001670 272.2775  87.7891 15.40732447 10531
STARLINK-34017          
1 64339U 25124Y   25229.31181693  .00022525  00000+0  82533-3 0  9990
2 64339  43.0012 195.9122 0001868 274.2603  85.8035 15.27589613 10527
STARLINK-33977          
1 64344U 25126A   25229.34041079  .00002530  00000+0  21519-3 0  9995
2 64344  70.0013 189.6455 0002960 269.0377  91.0444 14.99143325 11288
STARLINK-34426          
1 64345U 25126B   25229.60064343 -.00056534  00000+0 -47587-2 0  9991
2 64345  70.0009 188.9434 0003169 257.5469 102.5335 14.98408968 10113
