[{"OBJECT_NAME":"STARLINK-11678 [DTC]","OBJECT_ID":"2025-124K","EPOCH":"2025-08-17T05:04:59.045664","MEAN_MOTION":15.70915212,"ECCENTRICITY":0.000265,"INCLINATION":42.9975,"RA_OF_ASC_NODE":181.8947,"ARG_OF_PERICENTER":257.0481,"MEAN_ANOMALY":103.0091,"EPHEMERIS_TYPE":0,"CLASSIFICATION_TYPE":"U","NORAD_CAT_ID":64326,"ELEMENT_SET_NO":999,"REV_AT_EPOCH":1067,"BSTAR":0.0011952,"MEAN_MOTION_DOT":0.00156335,"MEAN_MOTION_DDOT":0},{"OBJECT_NAME":"STARLINK-11674 [DTC]","OBJECT_ID":"2025-124L","EPOCH":"2025-08-17T13:28:28.352064","MEAN_MOTION":15.7094454,"ECCENTRICITY":0.0001754,"INCLINATION":42.9982,"RA_OF_ASC_NODE":179.3377,"ARG_OF_PERICENTER":276.3489,"MEAN_ANOMALY":83.7179,"EPHEMERIS_TYPE":0,"CLASSIFICATION_TYPE":"U","NORAD_CAT_ID":64327,"ELEMENT_SET_NO":999,"REV_AT_EPOCH":1073,"BSTAR":0.0012906,"MEAN_MOTION_DOT":0.00169313,"MEAN_MOTION_DDOT":0},{"OBJECT_NAME":"STARLINK-11707 [DTC]","OBJECT_ID":"2025-124M","EPOCH":"2025-08-17T13:51:25.451424","MEAN_MOTION":15.70879865,"ECCENTRICITY":9.85e-5,"INCLINATION":42.997,"RA_OF_ASC_NODE":179.4667,"ARG_OF_PERICENTER":50.2565,"MEAN_ANOMALY":309.8389,"EPHEMERIS_TYPE":0,"CLASSIFICATION_TYPE":"U","NORAD_CAT_ID":64328,"ELEMENT_SET_NO":999,"REV_AT_EPOCH":1073,"BSTAR":0.001406,"MEAN_MOTION_DOT":0.00184325,"MEAN_MOTION_DDOT":0},{"OBJECT_NAME":"STARLINK-11734 [DTC]","OBJECT_ID":"2025-124N","EPOCH":"2025-08-17T05:35:22.781184","MEAN_MOTION":15.70919955,"ECCENTRICITY":0.0002854,"INCLINATION":42.9977,"RA_OF_ASC_NODE":181.1712,"ARG_OF_PERICENTER":260.3245,"MEAN_ANOMALY":99.73,"EPHEMERIS_TYPE":0,"CLASSIFICATION_TYPE":"U","NORAD_CAT_ID":64329,"ELEMENT_SET_NO":999,"REV_AT_EPOCH":1068,"BSTAR":0.0012207,"MEAN_MOTION_DOT":0.00159782,"MEAN_MOTION_DDOT":0},{"OBJECT_NAME":"STARLINK-34252","OBJECT_ID":"2025-124P","EPOCH":"2025-08-17T08:00:01.999872","MEAN_MOTION":15.27591262,"ECCENTRICITY":0.0001216,"INCLINATION":42.9991,"RA_OF_ASC_NODE":195.9863,"ARG_OF_PERICENTER":288.1338,"MEAN_ANOMALY":112.6081,"EPHEMERIS_TYPE":0,"CLASSIFICATION_TYPE":"U","NORAD_CAT_ID":64330,"ELEMENT_SET_NO":999,"REV_AT_EPOCH":591,"BSTAR":0.0028253,"MEAN_MOTION_DOT":0.0007834,"MEAN_MOTION_DDOT":0},{"OBJECT_NAME":"STARLINK-34050","OBJECT_ID":"2025-124Q","EPOCH":"2025-08-17T07:40:21.633312","MEAN_MOTION":15.28426433,"ECCENTRICITY":0.0001412,"INCLINATION":42.9996,"RA_OF_ASC_NODE":195.9763,"ARG_OF_PERICENTER":267.7537,"MEAN_ANOMALY":92.3153,"EPHEMERIS_TYPE":0,"CLASSIFICATION_TYPE":"U","NORAD_CAT_ID":64331,"ELEMENT_SET_NO":999,"REV_AT_EPOCH":1158,"BSTAR":0.00064529,"MEAN_MOTION_DOT":0.00018003,"MEAN_MOTION_DDOT":0},{"OBJECT_NAME":"STARLINK-33782","OBJECT_ID":"2025-124R","EPOCH":"2025-08-17T14:00:01.999872","MEAN_MOTION":15.27596521,"ECCENTRICITY":0.0002076,"INCLINATION":43.001,"RA_OF_ASC_NODE":194.2771,"ARG_OF_PERICENTER":269.6803,"MEAN_ANOMALY":187.8298,"EPHEMERIS_TYPE":0,"CLASSIFICATION_TYPE":"U","NORAD_CAT_ID":64332,"ELEMENT_SET_NO":999,"REV_AT_EPOCH":589,"BSTAR":-0.00080102,"MEAN_MOTION_DOT":-0.00022251,"MEAN_MOTION_DDOT":0},{"OBJECT_NAME":"STARLINK-34207","OBJECT_ID":"2025-124S","EPOCH":"2025-08-17T06:09:39.911616","MEAN_MOTION":15.27588814,"ECCENTRICITY":0.0001044,"INCLINATION":42.9989,"RA_OF_ASC_NODE":196.3634,"ARG_OF_PERICENTER":268.8542,"MEAN_ANOMALY":91.219,"EPHEMERIS_TYPE":0,"CLASSIFICATION_TYPE":"U","NORAD_CAT_ID":64333,"ELEMENT_SET_NO":999,"REV_AT_EPOCH":1051,"BSTAR":0.00064795,"MEAN_MOTION_DOT":0.00017615,"MEAN_MOTION_DDOT":0},{"OBJECT_NAME":"STARLINK-34260","OBJECT_ID":"2025-124T","EPOCH":"2025-08-17T14:11:32.719488","MEAN_MOTION":15.27599478,"ECCENTRICITY":0.0001938,"INCLINATION":42.9959,"RA_OF_ASC_NODE":194.5699,"ARG_OF_PERICENTER":274.6741,"MEAN_ANOMALY":85.3889,"EPHEMERIS_TYPE":0,"CLASSIFICATION_TYPE":"U","NORAD_CAT_ID":64334,"ELEMENT_SET_NO":999,"REV_AT_EPOCH":1056,"BSTAR":0.00078995,"MEAN_MOTION_DOT":0.00021553,"MEAN_MOTION_DDOT":0},{"OBJECT_NAME":"STARLINK-33855","OBJECT_ID":"2025-124U","EPOCH":"2025-08-17T05:38:12.177888","MEAN_MOTION":15.27593744,"ECCENTRICITY":0.0001635,"INCLINATION":43.002,"RA_OF_ASC_NODE":196.1899,"ARG_OF_PERICENTER":253.0105,"MEAN_ANOMALY":107.0568,"EPHEMERIS_TYPE":0,"CLASSIFICATION_TYPE":"U","NORAD_CAT_ID":64335,"ELEMENT_SET_NO":999,"REV_AT_EPOCH":1051,"BSTAR":0.00066685,"MEAN_MOTION_DOT":0.00018141,"MEAN_MOTION_DDOT":0},{"OBJECT_NAME":"STARLINK-34223","OBJECT_ID":"2025-124V","EPOCH":"2025-08-17T07:18:52.496928","MEAN_MOTION":15.40760759,"ECCENTRICITY":0.0002412,"INCLINATION":43.0011,"RA_OF_ASC_NODE":194.993,"ARG_OF_PERICENTER":265.8362,"MEAN_ANOMALY":94.2219,"EPHEMERIS_TYPE":0,"CLASSIFICATION_TYPE":"U","NORAD_CAT_ID":64336,"ELEMENT_SET_NO":999,"REV_AT_EPOCH":1053,"BSTAR":0.0012978,"MEAN_MOTION_DOT":0.00054409,"MEAN_MOTION_DDOT":0},{"OBJECT_NAME":"STARLINK-34216","OBJECT_ID":"2025-124W","EPOCH":"2025-08-17T14:00:01.999872","MEAN_MOTION":15.2759327,"ECCENTRICITY":0.0001128,"INCLINATION":42.9994,"RA_OF_ASC_NODE":194.0401,"ARG_OF_PERICENTER":262.4944,"MEAN_ANOMALY":294.0685,"EPHEMERIS_TYPE":0,"CLASSIFICATION_TYPE":"U","NORAD_CAT_ID":64337,"ELEMENT_SET_NO":999,"REV_AT_EPOCH":586,"BSTAR":-0.0009133,"MEAN_MOTION_DOT":-0.00025318,"MEAN_MOTION_DDOT":0},{"OBJECT_NAME":"STARLINK-34218","OBJECT_ID":"2025-124X","EPOCH":"2025-08-17T07:54:21.722976","MEAN_MOTION":15.40732447,"ECCENTRICITY":0.000167,"INCLINATION":42.9997,"RA_OF_ASC_NODE":195.1845,"ARG_OF_PERICENTER":272.2775,"MEAN_ANOMALY":87.7891,"EPHEMERIS_TYPE":0,"CLASSIFICATION_TYPE":"U","NORAD_CAT_ID":64338,"ELEMENT_SET_NO":999,"REV_AT_EPOCH":1053,"BSTAR":0.0007681,"MEAN_MOTION_DOT":0.00031951,"MEAN_MOTION_DDOT":0},{"OBJECT_NAME":"STARLINK-34017","OBJECT_ID":"2025-124Y","EPOCH":"2025-08-17T07:29:00.982752","MEAN_MOTION":15.27589613,"ECCENTRICITY":0.0001868,"INCLINATION":43.0012,"RA_OF_ASC_NODE":195.9122,"ARG_OF_PERICENTER":274.2603,"MEAN_ANOMALY":85.8035,"EPHEMERIS_TYPE":0,"CLASSIFICATION_TYPE":"U","NORAD_CAT_ID":64339,"ELEMENT_SET_NO":999,"REV_AT_EPOCH":1052,"BSTAR":0.00082533,"MEAN_MOTION_DOT":0.00022525,"MEAN_MOTION_DDOT":0},{"OBJECT_NAME":"STARLINK-33977","OBJECT_ID":"2025-126A","EPOCH":"2025-08-17T08:10:11.492256","MEAN_MOTION":14.99143325,"ECCENTRICITY":0.000296,"INCLINATION":70.0013,"RA_OF_ASC_NODE":189.6455,"ARG_OF_PERICENTER":269.0377,"MEAN_ANOMALY":91.0444,"EPHEMERIS_TYPE":0,"CLASSIFICATION_TYPE":"U","NORAD_CAT_ID":64344,"ELEMENT_SET_NO":999,"REV_AT_EPOCH":1128,"BSTAR":0.00021519,"MEAN_MOTION_DOT":2.53e-5,"MEAN_MOTION_DDOT":0},{"OBJECT_NAME":"STARLINK-34426","OBJECT_ID":"2025-126B","EPOCH":"2025-08-17T14:24:55.592352","MEAN_MOTION":14.98408968,"ECCENTRICITY":0.0003169,"INCLINATION":70.0009,"RA_OF_ASC_NODE":188.9434,"ARG_OF_PERICENTER":257.5469,"MEAN_ANOMALY":102.5335,"EPHEMERIS_TYPE":0,"CLASSIFICATION_TYPE":"U","NORAD_CAT_ID":64345,"ELEMENT_SET_NO":999,"REV_AT_EPOCH":1011,"BSTAR":-0.0047587,"MEAN_MOTION_DOT":-0.00056534,"MEAN_MOTION_DDOT":0}]
